[{"OBJECT_NAME":"STARLINK-30462","OBJECT_ID":"2023-146M","EPOCH":"2026-03-09T22:00:01.999584","MEAN_MOTION":15.06201719,"ECCENTRICITY":0.00020644,"INCLINATION":43.0005,"RA_OF_ASC_NODE":311.9584,"ARG_OF_PERICENTER":259.8458,"MEAN_ANOMALY":49.1349,"EPHEMERIS_TYPE":0,"CLASSIFICATION_TYPE":"U","NORAD_CAT_ID":57902,"ELEMENT_SET_NO":999,"REV_AT_EPOCH":577,"BSTAR":0.10381501,"MEAN_MOTION_DOT":0.01694699,"MEAN_MOTION_DDOT":0},{"OBJECT_NAME":"TEVEL2-9","OBJECT_ID":"2025-052AD","EPOCH":"2026-03-09T16:51:18.321696","MEAN_MOTION":15.28633834,"ECCENTRICITY":0.000799,"INCLINATION":97.4057,"RA_OF_ASC_NODE":324.3929,"ARG_OF_PERICENTER":124.2475,"MEAN_ANOMALY":235.9522,"EPHEMERIS_TYPE":0,"CLASSIFICATION_TYPE":"U","NORAD_CAT_ID":63237,"ELEMENT_SET_NO":999,"REV_AT_EPOCH":5481,"BSTAR":0.00067240159,"MEAN_MOTION_DOT":0.00018694,"MEAN_MOTION_DDOT":0}]
